{
  "links" : {
    "next" : "https://api.nasa.gov/neo/rest/v1/feed?start_date=2001-05-09&end_date=2001-05-09&detailed=true&api_key=t0TVs3DtDT2H8Oy2Zy8m2eVrNsAVKAexjcZXUckd",
    "prev" : "https://api.nasa.gov/neo/rest/v1/feed?start_date=2001-05-07&end_date=2001-05-07&detailed=true&api_key=t0TVs3DtDT2H8Oy2Zy8m2eVrNsAVKAexjcZXUckd",
    "self" : "https://api.nasa.gov/neo/rest/v1/feed?start_date=2001-05-08&end_date=2001-05-08&detailed=true&api_key=t0TVs3DtDT2H8Oy2Zy8m2eVrNsAVKAexjcZXUckd"
  },
  "element_count" : 4,
  "near_earth_objects" : {
    "2001-05-08" : [ {
      "links" : {
        "self" : "https://api.nasa.gov/neo/rest/v1/neo/3164412?api_key=t0TVs3DtDT2H8Oy2Zy8m2eVrNsAVKAexjcZXUckd"
      },
      "neo_reference_id" : "3164412",
      "name" : "(2003 UO25)",
      "nasa_jpl_url" : "http://ssd.jpl.nasa.gov/sbdb.cgi?sstr=3164412",
      "absolute_magnitude_h" : 22.6,
      "estimated_diameter" : {
        "kilometers" : {
          "estimated_diameter_min" : 0.0802703167,
          "estimated_diameter_max" : 0.1794898848
        },
        "meters" : {
          "estimated_diameter_min" : 80.2703167283,
          "estimated_diameter_max" : 179.4898847799
        },
        "miles" : {
          "estimated_diameter_min" : 0.049877647,
          "estimated_diameter_max" : 0.1115298092
        },
        "feet" : {
          "estimated_diameter_min" : 263.3540659348,
          "estimated_diameter_max" : 588.8775935812
        }
      },
      "is_potentially_hazardous_asteroid" : false,
      "close_approach_data" : [ {
        "close_approach_date" : "2001-05-08",
        "epoch_date_close_approach" : 989305200000,
        "relative_velocity" : {
          "kilometers_per_second" : "11.4497896589",
          "kilometers_per_hour" : "41219.2427719723",
          "miles_per_hour" : "25612.0344879514"
        },
        "miss_distance" : {
          "astronomical" : "0.2372116888",
          "lunar" : "92.2753448486",
          "kilometers" : "35486364",
          "miles" : "22050204"
        },
        "orbiting_body" : "Earth"
      } ],
      "orbital_data" : {
        "orbit_id" : "14",
        "orbit_determination_date" : "2017-04-06 09:13:35",
        "orbit_uncertainty" : "2",
        "minimum_orbit_intersection" : ".164832",
        "jupiter_tisserand_invariant" : "5.948",
        "epoch_osculation" : "2458000.5",
        "eccentricity" : ".228982647249184",
        "semi_major_axis" : "1.016477554395882",
        "inclination" : "15.47493071345896",
        "ascending_node_longitude" : "211.8751749681112",
        "orbital_period" : "374.3217964975495",
        "perihelion_distance" : ".7837218331209368",
        "perihelion_argument" : "28.55821560099998",
        "aphelion_distance" : "1.249233275670828",
        "perihelion_time" : "2458036.648381997521",
        "mean_anomaly" : "325.2346787152891",
        "mean_motion" : ".9617393466489114",
        "equinox" : "J2000"
      }
    }, {
      "links" : {
        "self" : "https://api.nasa.gov/neo/rest/v1/neo/3467313?api_key=t0TVs3DtDT2H8Oy2Zy8m2eVrNsAVKAexjcZXUckd"
      },
      "neo_reference_id" : "3467313",
      "name" : "(2009 SB15)",
      "nasa_jpl_url" : "http://ssd.jpl.nasa.gov/sbdb.cgi?sstr=3467313",
      "absolute_magnitude_h" : 20.6,
      "estimated_diameter" : {
        "kilometers" : {
          "estimated_diameter_min" : 0.2016299194,
          "estimated_diameter_max" : 0.4508582062
        },
        "meters" : {
          "estimated_diameter_min" : 201.6299194428,
          "estimated_diameter_max" : 450.8582061718
        },
        "miles" : {
          "estimated_diameter_min" : 0.1252869847,
          "estimated_diameter_max" : 0.2801502144
        },
        "feet" : {
          "estimated_diameter_min" : 661.5155049046,
          "estimated_diameter_max" : 1479.1936371367
        }
      },
      "is_potentially_hazardous_asteroid" : false,
      "close_approach_data" : [ {
        "close_approach_date" : "2001-05-08",
        "epoch_date_close_approach" : 989305200000,
        "relative_velocity" : {
          "kilometers_per_second" : "31.7541930929",
          "kilometers_per_hour" : "114315.0951345462",
          "miles_per_hour" : "71030.954529574"
        },
        "miss_distance" : {
          "astronomical" : "0.4554488628",
          "lunar" : "177.1696014404",
          "kilometers" : "68134184",
          "miles" : "42336616"
        },
        "orbiting_body" : "Earth"
      } ],
      "orbital_data" : {
        "orbit_id" : "26",
        "orbit_determination_date" : "2017-04-06 08:59:55",
        "orbit_uncertainty" : "1",
        "minimum_orbit_intersection" : ".0686243",
        "jupiter_tisserand_invariant" : "3.462",
        "epoch_osculation" : "2458000.5",
        "eccentricity" : ".6777978227821557",
        "semi_major_axis" : "2.046844392123017",
        "inclination" : "4.166763507178569",
        "ascending_node_longitude" : "313.6115311290462",
        "orbital_period" : "1069.610525608334",
        "perihelion_distance" : ".6594977195681712",
        "perihelion_argument" : "169.7881664675672",
        "aphelion_distance" : "3.434191064677863",
        "perihelion_time" : "2458419.837495284358",
        "mean_anomaly" : "218.8631144813105",
        "mean_motion" : ".3365711082501289",
        "equinox" : "J2000"
      }
    }, {
      "links" : {
        "self" : "https://api.nasa.gov/neo/rest/v1/neo/3520666?api_key=t0TVs3DtDT2H8Oy2Zy8m2eVrNsAVKAexjcZXUckd"
      },
      "neo_reference_id" : "3520666",
      "name" : "(2010 JV34)",
      "nasa_jpl_url" : "http://ssd.jpl.nasa.gov/sbdb.cgi?sstr=3520666",
      "absolute_magnitude_h" : 20.8,
      "estimated_diameter" : {
        "kilometers" : {
          "estimated_diameter_min" : 0.1838886721,
          "estimated_diameter_max" : 0.411187571
        },
        "meters" : {
          "estimated_diameter_min" : 183.8886720703,
          "estimated_diameter_max" : 411.1875710413
        },
        "miles" : {
          "estimated_diameter_min" : 0.1142630881,
          "estimated_diameter_max" : 0.2555000322
        },
        "feet" : {
          "estimated_diameter_min" : 603.309310875,
          "estimated_diameter_max" : 1349.040630575
        }
      },
      "is_potentially_hazardous_asteroid" : true,
      "close_approach_data" : [ {
        "close_approach_date" : "2001-05-08",
        "epoch_date_close_approach" : 989305200000,
        "relative_velocity" : {
          "kilometers_per_second" : "21.8950171758",
          "kilometers_per_hour" : "78822.0618327007",
          "miles_per_hour" : "48976.9639204356"
        },
        "miss_distance" : {
          "astronomical" : "0.2478782769",
          "lunar" : "96.4246520996",
          "kilometers" : "37082064",
          "miles" : "23041726"
        },
        "orbiting_body" : "Earth"
      } ],
      "orbital_data" : {
        "orbit_id" : "26",
        "orbit_determination_date" : "2017-04-06 08:57:36",
        "orbit_uncertainty" : "3",
        "minimum_orbit_intersection" : ".038909",
        "jupiter_tisserand_invariant" : "3.978",
        "epoch_osculation" : "2458000.5",
        "eccentricity" : ".5438881357686699",
        "semi_major_axis" : "1.722848148618251",
        "inclination" : "7.210834683994499",
        "ascending_node_longitude" : "225.373343358336",
        "orbital_period" : "825.9788514161331",
        "perihelion_distance" : ".7858114808537663",
        "perihelion_argument" : "86.98779161608434",
        "aphelion_distance" : "2.659884816382737",
        "perihelion_time" : "2457866.886863603326",
        "mean_anomaly" : "58.23481923336704",
        "mean_motion" : ".4358465103347178",
        "equinox" : "J2000"
      }
    }, {
      "links" : {
        "self" : "https://api.nasa.gov/neo/rest/v1/neo/3545552?api_key=t0TVs3DtDT2H8Oy2Zy8m2eVrNsAVKAexjcZXUckd"
      },
      "neo_reference_id" : "3545552",
      "name" : "(2010 RF12)",
      "nasa_jpl_url" : "http://ssd.jpl.nasa.gov/sbdb.cgi?sstr=3545552",
      "absolute_magnitude_h" : 28.1,
      "estimated_diameter" : {
        "kilometers" : {
          "estimated_diameter_min" : 0.0063760979,
          "estimated_diameter_max" : 0.0142573883
        },
        "meters" : {
          "estimated_diameter_min" : 6.3760978988,
          "estimated_diameter_max" : 14.2573883328
        },
        "miles" : {
          "estimated_diameter_min" : 0.0039619223,
          "estimated_diameter_max" : 0.0088591276
        },
        "feet" : {
          "estimated_diameter_min" : 20.9189570301,
          "estimated_diameter_max" : 46.7762099378
        }
      },
      "is_potentially_hazardous_asteroid" : false,
      "close_approach_data" : [ {
        "close_approach_date" : "2001-05-08",
        "epoch_date_close_approach" : 989305200000,
        "relative_velocity" : {
          "kilometers_per_second" : "3.5161066912",
          "kilometers_per_hour" : "12657.9840883514",
          "miles_per_hour" : "7865.1790575648"
        },
        "miss_distance" : {
          "astronomical" : "0.134382872",
          "lunar" : "52.274936676",
          "kilometers" : "20103392",
          "miles" : "12491669"
        },
        "orbiting_body" : "Earth"
      } ],
      "orbital_data" : {
        "orbit_id" : "17",
        "orbit_determination_date" : "2017-04-06 08:56:52",
        "orbit_uncertainty" : "4",
        "minimum_orbit_intersection" : ".000625603",
        "jupiter_tisserand_invariant" : "5.793",
        "epoch_osculation" : "2458000.5",
        "eccentricity" : ".1882329622820639",
        "semi_major_axis" : "1.060462000922179",
        "inclination" : ".88274263081733",
        "ascending_node_longitude" : "163.8412249778223",
        "orbital_period" : "398.8789277755973",
        "perihelion_distance" : ".8608480971010326",
        "perihelion_argument" : "267.5583689857104",
        "aphelion_distance" : "1.260075904743326",
        "perihelion_time" : "2457912.465568058837",
        "mean_anomaly" : "79.45367200908683",
        "mean_motion" : ".9025295018906841",
        "equinox" : "J2000"
      }
    } ]
  }
}